[{"OBJECT_NAME":"SAUDISAT 4","OBJECT_ID":"2014-033G","EPOCH":"2026-03-09T23:14:52.668960","MEAN_MOTION":14.79390687,"ECCENTRICITY":0.00457103,"INCLINATION":97.7413,"RA_OF_ASC_NODE":218.6273,"ARG_OF_PERICENTER":37.8064,"MEAN_ANOMALY":322.6344,"EPHEMERIS_TYPE":0,"CLASSIFICATION_TYPE":"U","NORAD_CAT_ID":40016,"ELEMENT_SET_NO":999,"REV_AT_EPOCH":63140,"BSTAR":0.00014306526,"MEAN_MOTION_DOT":1.033e-5,"MEAN_MOTION_DDOT":0},{"OBJECT_NAME":"FASTRAC 2 (USA 228)","OBJECT_ID":"2010-062M","EPOCH":"2026-03-09T23:32:52.018368","MEAN_MOTION":14.84460382,"ECCENTRICITY":0.00173581,"INCLINATION":71.9738,"RA_OF_ASC_NODE":6.9558,"ARG_OF_PERICENTER":295.6401,"MEAN_ANOMALY":64.2971,"EPHEMERIS_TYPE":0,"CLASSIFICATION_TYPE":"U","NORAD_CAT_ID":37380,"ELEMENT_SET_NO":999,"REV_AT_EPOCH":35105,"BSTAR":0.00019099988,"MEAN_MOTION_DOT":1.554e-5,"MEAN_MOTION_DDOT":0}]
